{"type":"FeatureCollection","features":[{"type":"Feature","geometry":{"type":"Point","coordinates":[-107.521268,32.461272]},"properties":{"marker-color":"rgba(80, 3, 19, 0.19)","marker-size":"small","marker-symbol":"marker"}},{"type":"Feature","geometry":{"type":"Point","coordinates":[-105.369465,23.384065]},"properties":{"marker-color":"rgba(86, 10, 3, 0.45)","marker-size":"small","marker-symbol":"marker"}},{"type":"Feature","geometry":{"type":"Point","coordinates":[-105.368435,23.381839]},"properties":{"marker-color":"rgba(100, 20, 40, 0.35)","marker-size":"small","marker-symbol":"marker"}},{"type":"Feature","geometry":{"type":"Point","coordinates":[-106.394839,24.918764]},"properties":{"marker-color":"rgba(120, 30, 60, 0.35)","marker-size":"small","marker-symbol":"marker"}},{"type":"Feature","geometry":{"type":"Point","coordinates":[-105.947077,26.096735]},"properties":{"marker-color":"rgba(140, 40, 80, 0.35)","marker-size":"small","marker-symbol":"marker"}},{"type":"Feature","geometry":{"type":"Point","coordinates":[-105.604737,23.954262]},"properties":{"marker-color":"rgba(160, 50, 100, 0.35)","marker-size":"small","marker-symbol":"marker"}},{"type":"Feature","geometry":{"type":"Point","coordinates":[-104.736819,24.016024]},"properties":{"marker-color":"rgba(180, 60, 120, 0.35)","marker-size":"small","marker-symbol":"marker"}},{"type":"Feature","geometry":{"type":"LineString","coordinates":[[-107.521268,32.461272],[-105.369465,23.384065],[-105.368435,23.381839],[-106.394839,24.918764],[-105.947077,26.096735],[-105.604737,23.954262],[-104.736819,24.016024]]},"properties":{"stroke":"#500313","stroke-width":3,"stroke-opacity":0.8}}]}